TOMORROW-S2             
1 60485U 24149T   26068.75188364  .00008133  00000+0  27683-3 0  9990
2 60485  97.3857 150.0385 0001648 234.3331 125.7757 15.30674935 86869
STARLINK-32759          
1 62751U 25014S   26068.29247696  .00035353  00000+0  12869-2 0  9996
2 62751  42.9997 160.3567 0003625 294.6034  65.4440 15.27605558 63157
